NORAD_CAT_ID,OBJECT_NAME,OBJECT_TYPE,EPOCH,MEAN_MOTION,ECCENTRICITY,INCLINATION,RA_OF_ASC_NODE,ARG_OF_PERICENTER,MEAN_ANOMALY,BSTAR,MEAN_MOTION_DOT,MEAN_MOTION_DDOT,TLE_LINE0,TLE_LINE1,TLE_LINE2,SEMIMAJOR_AXIS,PERIOD,APOGEE,PERIGEE,DECAYED
53423.0,STARLINK-4539,PAYLOAD,2024-04-19 23:30:23,15.08859964,0.0001593,53.2173,325.8713,74.2938,285.823,0.00066569,0.00010328,0.0,0 STARLINK-4539,1 53423U 22097AM  24110.97944354  .00010328  00000-0  66569-3 0  9999,2 53423  53.2173 325.8713 0001593  74.2938 285.8230 15.08859964 94196,6917.819,95.436,540.786,538.582,0.0
53423.0,STARLINK-4539,PAYLOAD,2024-04-20 20:10:24,15.0884683,0.0001262,53.2172,322.0035,91.4883,268.6253,5.7522e-06,-1.96e-06,0.0,0 STARLINK-4539,1 53423U 22097AM  24111.84056079 -.00000196  00000-0  57522-5 0  9998,2 53423  53.2172 322.0035 0001262  91.4883 268.6253 15.08846830 94321,6917.86,95.437,540.598,538.851,0.0
53423.0,STARLINK-4539,PAYLOAD,2024-04-20 23:21:10,15.08841142,0.0001302,53.2169,321.4093,98.5923,261.5216,-0.00010869,-2.017e-05,0.0,0 STARLINK-4539,1 53423U 22097AM  24111.97304182 -.00002017  00000-0 -10869-3 0  9999,2 53423  53.2169 321.4093 0001302  98.5923 261.5216 15.08841142 94807,6917.877,95.437,540.643,538.841,0.0
53423.0,STARLINK-4539,PAYLOAD,2024-04-21 20:01:11,15.08844716,0.0001375,53.2171,317.5426,98.8668,261.248,-3.8159e-05,-8.95e-06,0.0,0 STARLINK-4539,1 53423U 22097AM  24112.83416323 -.00000895  00000-0 -38159-4 0  9991,2 53423  53.2171 317.5426 0001375  98.8668 261.2480 15.08844716 94478,6917.866,95.437,540.682,538.78,0.0
53423.0,STARLINK-4539,PAYLOAD,2024-04-21 23:11:57,15.08847823,0.0001392,53.2174,316.9448,104.0737,256.041,2.3828e-05,9.1e-07,0.0,0 STARLINK-4539,1 53423U 22097AM  24112.96664088  .00000091  00000-0  23828-4 0  9991,2 53423  53.2174 316.9448 0001392 104.0737 256.0410 15.08847823 94954,6917.856,95.437,540.684,538.759,0.0
53423.0,STARLINK-4539,PAYLOAD,2024-04-22 19:51:58,15.08836631,0.0001639,53.2172,313.0785,131.4923,228.621,0.00011603,1.559e-05,0.0,0 STARLINK-4539,1 53423U 22097AM  24113.82776613  .00001559  00000-0  11603-3 0  9992,2 53423  53.2172 313.0785 0001639 131.4923 228.6210 15.08836631 94621,6917.891,95.438,540.89,538.622,0.0
53423.0,STARLINK-4539,PAYLOAD,2024-04-23 18:07:23,15.08836961,0.0001675,53.2188,308.9179,129.6116,230.5025,2.0909e-05,4.5e-07,0.0,0 STARLINK-4539,1 53423U 22097AM  24114.75513034  .00000045  00000-0  20909-4 0  9990,2 53423  53.2188 308.9179 0001675 129.6116 230.5025 15.08836961 95220,6917.89,95.438,540.913,538.596,0.0
53423.0,STARLINK-4539,PAYLOAD,2024-04-24 13:12:00,15.08837074,0.0001212,53.2175,305.3525,105.9754,254.1371,0.00012532,1.707e-05,0.0,0 STARLINK-4539,1 53423U 22097AM  24115.55001036  .00001707  00000-0  12532-3 0  9991,2 53423  53.2175 305.3525 0001212 105.9754 254.1371 15.08837074 94887,6917.889,95.438,540.593,538.916,0.0
53423.0,STARLINK-4539,PAYLOAD,2024-04-24 16:22:47,15.08838101,0.0001228,53.2178,304.758,107.7872,252.3254,0.00013015,1.784e-05,0.0,0 STARLINK-4539,1 53423U 22097AM  24115.68248998  .00001784  00000-0  13015-3 0  9997,2 53423  53.2178 304.7580 0001228 107.7872 252.3254 15.08838101 95368,6917.886,95.438,540.601,538.902,0.0
53423.0,STARLINK-4539,PAYLOAD,2024-04-24 17:58:10,15.08838643,0.0001216,53.2176,304.4606,106.2637,253.8489,0.0001353,1.866e-05,0.0,0 STARLINK-4539,1 53423U 22097AM  24115.74873006  .00001866  00000-0  13530-3 0  9991,2 53423  53.2176 304.4606 0001216 106.2637 253.8489 15.08838643 95370,6917.885,95.438,540.591,538.908,0.0
53423.0,STARLINK-4539,PAYLOAD,2024-04-25 16:13:34,15.08840681,0.0001215,53.2174,300.2983,111.3148,248.7974,0.00010584,1.397e-05,0.0,0 STARLINK-4539,1 53423U 22097AM  24116.67609047  .00001397  00000-0  10584-3 0  9991,2 53423  53.2174 300.2983 0001215 111.3148 248.7974 15.08840681 95055,6917.878,95.438,540.584,538.903,0.0
53423.0,STARLINK-4539,PAYLOAD,2024-04-26 16:04:21,15.08836422,0.0001278,53.2181,295.8392,113.5065,246.6062,1.989e-05,2.9e-07,0.0,0 STARLINK-4539,1 53423U 22097AM  24117.66969682  .00000029  00000-0  19890-4 0  9996,2 53423  53.2181 295.8392 0001278 113.5065 246.6062 15.08836422 95207,6917.891,95.438,540.64,538.872,0.0
53423.0,STARLINK-4539,PAYLOAD,2024-04-27 04:47:26,15.0884911,0.0001168,53.2178,293.457,88.2033,271.9093,0.00011681,1.572e-05,0.0,0 STARLINK-4539,1 53423U 22097AM  24118.19960684  .00001572  00000-0  11681-3 0  9991,2 53423  53.2178 293.4570 0001168  88.2033 271.9093 15.08849110 95287,6917.853,95.437,540.526,538.91,0.0
53423.0,STARLINK-4539,PAYLOAD,2024-04-27 11:08:59,15.08842522,0.000203,53.2173,292.2722,89.6756,270.4469,0.00015552,2.188e-05,0.0,0 STARLINK-4539,1 53423U 22097AM  24118.46457246  .00002188  00000-0  15552-3 0  9991,2 53423  53.2173 292.2722 0002030  89.6756 270.4469 15.08842522 95320,6917.873,95.437,541.142,538.333,0.0
53423.0,STARLINK-4539,PAYLOAD,2024-04-27 19:05:55,15.08832243,0.0001324,53.2177,290.7845,92.178,267.9364,6.8406e-05,8.01e-06,0.0,0 STARLINK-4539,1 53423U 22097AM  24118.79578086  .00000801  00000-0  68406-4 0  9990,2 53423  53.2177 290.7845 0001324  92.1780 267.9364 15.08832243 95373,6917.904,95.438,540.685,538.853,0.0
53423.0,STARLINK-4539,PAYLOAD,2024-04-28 04:38:13,15.08847626,0.0001239,53.2185,288.9958,83.3084,276.8049,0.00019964,2.891e-05,0.0,0 STARLINK-4539,1 53423U 22097AM  24119.19320811  .00002891  00000-0  19964-3 0  9991,2 53423  53.2185 288.9958 0001239  83.3084 276.8049 15.08847626 95437,6917.857,95.437,540.579,538.865,0.0
53423.0,STARLINK-4539,PAYLOAD,2024-04-28 10:59:47,15.08831035,0.0001194,53.2176,287.8083,87.1206,272.9923,-2.3969e-05,-6.69e-06,0.0,0 STARLINK-4539,1 53423U 22097AM  24119.45818456 -.00000669  00000-0 -23969-4 0  9991,2 53423  53.2176 287.8083 0001194  87.1206 272.9923 15.08831035 95471,6917.908,95.438,540.599,538.947,0.0
53423.0,STARLINK-4539,PAYLOAD,2024-04-28 18:56:42,15.08838513,0.0001193,53.2173,286.323,83.9735,276.1393,4.4072e-05,4.14e-06,0.0,0 STARLINK-4539,1 53423U 22097AM  24119.78937850  .00000414  00000-0  44072-4 0  9991,2 53423  53.2173 286.3230 0001193  83.9735 276.1393 15.08838513 95527,6917.885,95.438,540.575,538.925,0.0
53423.0,STARLINK-4539,PAYLOAD,2024-04-29 10:50:33,15.08836003,0.0001351,53.2174,283.3499,84.0104,276.1042,0.0001452,2.023e-05,0.0,0 STARLINK-4539,1 53423U 22097AM  24120.45177872  .00002023  00000-0  14520-3 0  9999,2 53423  53.2174 283.3499 0001351  84.0104 276.1042 15.08836003 96085,6917.893,95.438,540.692,538.823,0.0
53423.0,STARLINK-4539,PAYLOAD,2024-04-29 20:22:52,15.08843147,0.0001172,53.2173,281.5632,86.2085,273.9041,0.00011338,1.517e-05,0.0,0 STARLINK-4539,1 53423U 22097AM  24120.84921629  .00001517  00000-0  11338-3 0  9990,2 53423  53.2173 281.5632 0001172  86.2085 273.9041 15.08843147 95682,6917.871,95.437,540.547,538.925,0.0
53423.0,STARLINK-4539,PAYLOAD,2024-04-30 13:52:07,15.08835682,0.000143,53.219,278.2926,92.3551,267.7605,0.00026671,3.959e-05,0.0,0 STARLINK-4539,1 53423U 22097AM  24121.57786174  .00003959  00000-0  26671-3 0  9993,2 53423  53.2190 278.2926 0001430  92.3551 267.7605 15.08835682 95797,6917.894,95.438,540.748,538.769,0.0
53423.0,STARLINK-4539,PAYLOAD,2024-04-30 17:02:53,15.08840259,0.0001346,53.22,277.6974,102.5002,257.6141,0.00010979,1.46e-05,0.0,0 STARLINK-4539,1 53423U 22097AM  24121.71033849  .00001460  00000-0  10979-3 0  9992,2 53423  53.2200 277.6974 0001346 102.5002 257.6141 15.08840259 96279,6917.88,95.438,540.676,538.813,0.0
53423.0,STARLINK-4539,PAYLOAD,2024-05-01 10:32:08,15.08829082,0.0001435,53.2195,274.426,96.7881,263.3274,-1.5114e-05,-5.28e-06,0.0,0 STARLINK-4539,1 53423U 22097AM  24122.43899160 -.00000528  00000-0 -15114-4 0  9991,2 53423  53.2195 274.4260 0001435  96.7881 263.3274 15.08829082 95926,6917.914,95.438,540.771,538.786,0.0
53423.0,STARLINK-4539,PAYLOAD,2024-05-01 16:53:42,15.08817155,0.0001361,53.2192,273.2377,92.6915,267.4233,-0.00010918,-2.024e-05,0.0,0 STARLINK-4539,1 53423U 22097AM  24122.70396314 -.00002024  00000-0 -10918-3 0  9993,2 53423  53.2192 273.2377 0001361  92.6915 267.4233 15.08817155 95962,6917.95,95.439,540.757,538.874,0.0
53423.0,STARLINK-4539,PAYLOAD,2024-05-02 02:26:01,15.0882318,0.0002837,53.2191,271.4535,97.1115,263.02,-9.9389e-05,-1.869e-05,0.0,0 STARLINK-4539,1 53423U 22097AM  24123.10140292 -.00001869  00000-0 -99389-4 0  9996,2 53423  53.2191 271.4535 0002837  97.1115 263.0200 15.08823180 96027,6917.932,95.439,541.759,537.834,0.0
53423.0,STARLINK-4539,PAYLOAD,2024-05-02 13:33:41,15.08840653,0.0001391,53.2187,269.3727,96.6229,263.4922,0.00010247,1.343e-05,0.0,0 STARLINK-4539,1 53423U 22097AM  24123.56506388  .00001343  00000-0  10247-3 0  9998,2 53423  53.2187 269.3727 0001391  96.6229 263.4922 15.08840653 96091,6917.878,95.438,540.706,538.781,0.0
53423.0,STARLINK-4539,PAYLOAD,2024-05-02 15:09:04,15.08842057,0.0001409,53.218,269.0753,96.7298,263.3854,0.00011822,1.594e-05,0.0,0 STARLINK-4539,1 53423U 22097AM  24123.63130262  .00001594  00000-0  11822-3 0  9998,2 53423  53.2180 269.0753 0001409  96.7298 263.3854 15.08842057 96562,6917.874,95.437,540.714,538.764,0.0
53423.0,STARLINK-4539,PAYLOAD,2024-05-03 02:16:45,15.08856436,0.0001197,53.218,266.9911,84.5794,275.5334,0.00025147,3.718e-05,0.0,0 STARLINK-4539,1 53423U 22097AM  24124.09496707  .00003718  00000-0  25147-3 0  9993,2 53423  53.2180 266.9911 0001197  84.5794 275.5334 15.08856436 96175,6917.83,95.437,540.523,538.867,0.0
53423.0,STARLINK-4539,PAYLOAD,2024-05-03 13:24:29,15.08824246,0.0002525,53.218,264.9133,98.6638,261.464,0.0001524,2.137e-05,0.0,0 STARLINK-4539,1 53423U 22097AM  24124.55867362  .00002137  00000-0  15240-3 0  9990,2 53423  53.2180 264.9133 0002525  98.6638 261.4640 15.08824246 96244,6917.929,95.439,541.54,538.047,0.0
53423.0,STARLINK-4539,PAYLOAD,2024-05-03 14:59:52,15.08826376,0.0002543,53.2188,264.6163,99.2312,260.8968,0.00016474,2.334e-05,0.0,0 STARLINK-4539,1 53423U 22097AM  24124.62491254  .00002334  00000-0  16474-3 0  9990,2 53423  53.2188 264.6163 0002543  99.2312 260.8968 15.08826376 96712,6917.922,95.438,541.546,538.028,0.0
